NORAD_CAT_ID,OBJECT_NAME,OBJECT_TYPE,EPOCH,MEAN_MOTION,ECCENTRICITY,INCLINATION,RA_OF_ASC_NODE,ARG_OF_PERICENTER,MEAN_ANOMALY,BSTAR,MEAN_MOTION_DOT,MEAN_MOTION_DDOT,TLE_LINE0,TLE_LINE1,TLE_LINE2,SEMIMAJOR_AXIS,PERIOD,APOGEE,PERIGEE,DECAYED
55678.0,STARLINK-5314,PAYLOAD,2023-03-04 16:00:00,15.73703237,0.0003445,69.9998,108.0582,263.5664,277.7112,-0.0077381,-0.00989221,0.0,0 STARLINK-5314,1 55678U 23021BC  23063.66667824 -.00989221  00000-0 -77381-2 0  9999,2 55678  69.9998 108.0582 0003445 263.5664 277.7112 15.73703237  2888,6726.461,91.504,350.643,346.009,0.0
55678.0,STARLINK-5314,PAYLOAD,2023-03-04 22:00:00,15.73131754,0.0003339,69.9944,107.3436,267.9345,249.0096,-0.0073204,-0.00905886,0.0,0 STARLINK-5314,1 55678U 23021BC  23063.91667824 -.00905886  00000-0 -73204-2 0  9992,2 55678  69.9944 107.3436 0003339 267.9345 249.0096 15.73131754  1303,6728.09,91.537,352.201,347.708,0.0
55678.0,STARLINK-5314,PAYLOAD,2023-03-05 14:00:01,15.71753558,0.0003733,69.9936,105.4622,274.4463,55.2376,-0.0082739,-0.00974634,0.0,0 STARLINK-5314,1 55678U 23021BC  23064.58334491 -.00974634  00000-0 -82739-2 0  9997,2 55678  69.9936 105.4622 0003733 274.4463  55.2376 15.71753558  1300,6732.022,91.617,356.4,351.374,0.0
55678.0,STARLINK-5314,PAYLOAD,2023-03-05 16:00:00,15.71605726,0.0003616,69.9935,105.2273,275.6129,165.418,-0.0088248,-0.01027391,0.0,0 STARLINK-5314,1 55678U 23021BC  23064.66667824 -.01027391  00000-0 -88248-2 0  9996,2 55678  69.9935 105.2273 0003616 275.6129 165.4180 15.71605726  3044,6732.444,91.626,356.744,351.875,0.0
55678.0,STARLINK-5314,PAYLOAD,2023-03-05 22:00:00,15.7088129,0.0003098,69.9938,104.5228,265.9908,148.8786,-0.0064354,-0.00738354,0.0,0 STARLINK-5314,1 55678U 23021BC  23064.91667824 -.00738354  00000-0 -64354-2 0  9993,2 55678  69.9938 104.5228 0003098 265.9908 148.8786 15.70881290  1305,6734.514,91.668,358.465,354.293,0.0
55678.0,STARLINK-5314,PAYLOAD,2023-03-06 08:00:01,15.69991693,0.0003618,69.9947,103.3503,272.3352,337.6659,-0.001019,-0.00121334,0.0,0 STARLINK-5314,1 55678U 23021BC  23065.33334491 -.00121334  00000-0 -10190-2 0  9994,2 55678  69.9947 103.3503 0003618 272.3352 337.6659 15.69991693  3149,6737.058,91.72,361.36,356.485,0.0
55678.0,STARLINK-5314,PAYLOAD,2023-03-06 22:00:00,15.69877317,0.0003294,69.9974,101.7094,266.0091,39.8806,0.0006148,0.00074224,0.0,0 STARLINK-5314,1 55678U 23021BC  23065.91667824  .00074224  00000-0  61480-3 0  9999,2 55678  69.9974 101.7094 0003294 266.0091  39.8806 15.69877317  1303,6737.385,91.727,361.469,357.031,0.0
55678.0,STARLINK-5314,PAYLOAD,2023-03-07 08:00:01,15.69893958,0.000335,69.9993,100.5379,271.6077,228.427,0.00023835,0.00028508,0.0,0 STARLINK-5314,1 55678U 23021BC  23066.33334491  .00028508  00000-0  23835-3 0  9993,2 55678  69.9993 100.5379 0003350 271.6077 228.4270 15.69893958  3308,6737.337,91.726,361.459,356.945,0.0
55678.0,STARLINK-5314,PAYLOAD,2023-03-07 22:00:00,15.69865808,0.0003368,70.0003,98.8974,262.4569,293.4542,0.00066977,0.00080906,0.0,0 STARLINK-5314,1 55678U 23021BC  23066.91667824  .00080906  00000-0  66977-3 0  9990,2 55678  70.0003  98.8974 0003368 262.4569 293.4542 15.69865808  1301,6737.418,91.728,361.552,357.014,0.0
55678.0,STARLINK-5314,PAYLOAD,2023-03-08 06:00:00,15.69905554,0.0003328,70.0007,97.9601,264.8612,14.3409,5.8201e-05,6.786e-05,0.0,0 STARLINK-5314,1 55678U 23021BC  23067.25001157  .00006786  00000-0  58201-4 0  9995,2 55678  70.0007  97.9601 0003328 264.8612  14.3409 15.69905554  3445,6737.304,91.725,361.411,356.927,0.0
55678.0,STARLINK-5314,PAYLOAD,2023-03-08 16:00:00,15.70005056,0.0003166,70.0005,96.7886,266.1221,207.2257,-0.0012628,-0.00149873,0.0,0 STARLINK-5314,1 55678U 23021BC  23067.66667824 -.00149873  00000-0 -12628-2 0  9997,2 55678  70.0005  96.7886 0003166 266.1221 207.2257 15.70005056  3518,6737.02,91.719,361.017,356.752,0.0
55678.0,STARLINK-5314,PAYLOAD,2023-03-08 22:00:00,15.69842513,0.000328,70.0007,96.0859,256.9984,188.9083,0.0012352,0.00150492,0.0,0 STARLINK-5314,1 55678U 23021BC  23067.91667824  .00150492  00000-0  12352-2 0  9996,2 55678  70.0007  96.0859 0003280 256.9984 188.9083 15.69842513  1305,6737.485,91.729,361.559,357.14,0.0
55678.0,STARLINK-5314,PAYLOAD,2023-03-09 08:00:01,15.69898474,0.0003293,70.0008,94.9144,265.5806,14.4737,0.00023892,0.00028582,0.0,0 STARLINK-5314,1 55678U 23021BC  23068.33334491  .00028582  00000-0  23892-3 0  9990,2 55678  70.0008  94.9144 0003293 265.5806  14.4737 15.69898474  3615,6737.324,91.726,361.408,356.971,0.0
55678.0,STARLINK-5314,PAYLOAD,2023-03-09 22:00:00,15.69859358,0.0003353,70.0005,93.2741,259.6913,76.2098,0.0010333,0.00125571,0.0,0 STARLINK-5314,1 55678U 23021BC  23068.91667824  .00125571  00000-0  10333-2 0  9994,2 55678  70.0005  93.2741 0003353 259.6913  76.2098 15.69859358  1305,6737.436,91.728,361.56,357.042,0.0
55678.0,STARLINK-5314,PAYLOAD,2023-03-10 04:13:11,15.69926827,0.0003283,70.0006,92.5455,263.825,96.2572,3.307e-05,3.766e-05,0.0,0 STARLINK-5314,1 55678U 23021BC  23069.17582787  .00003766  00000-0  33070-4 0  9993,2 55678  70.0006  92.5455 0003283 263.8250  96.2572 15.69926827  3748,6737.243,91.724,361.32,356.897,0.0
55678.0,STARLINK-5314,PAYLOAD,2023-03-10 17:58:57,15.6991992,0.0003337,70.0002,90.9334,264.5225,95.559,-5.799e-07,-2.82e-06,0.0,0 STARLINK-5314,1 55678U 23021BC  23069.74928115 -.00000282  00000-0 -57990-6 0  9996,2 55678  70.0002  90.9334 0003337 264.5225  95.5590 15.69919920  3830,6737.263,91.724,361.376,356.88,0.0
55678.0,STARLINK-5314,PAYLOAD,2023-03-11 10:48:13,15.69932045,0.0003194,70.0003,88.9626,263.3807,96.7025,3.0742e-05,3.486e-05,0.0,0 STARLINK-5314,1 55678U 23021BC  23070.45016045  .00003486  00000-0  30742-4 0  9997,2 55678  70.0003  88.9626 0003194 263.3807  96.7025 15.69932045  3947,6737.228,91.724,361.245,356.942,0.0
55678.0,STARLINK-5314,PAYLOAD,2023-03-11 12:19:59,15.69928498,0.0003004,70.0001,88.784,263.8282,96.2572,2.7249e-05,3.066e-05,0.0,0 STARLINK-5314,1 55678U 23021BC  23070.51387932  .00003066  00000-0  27249-4 0  9992,2 55678  70.0001  88.7840 0003004 263.8282  96.2572 15.69928498  4268,6737.239,91.724,361.127,357.08,0.0
55678.0,STARLINK-5314,PAYLOAD,2023-03-12 03:37:30,15.69923068,0.0003364,70.0005,86.992,265.3546,94.7265,1.1027e-05,1.113e-05,0.0,0 STARLINK-5314,1 55678U 23021BC  23071.15104875  .00001113  00000-0  11027-4 0  9994,2 55678  70.0005  86.9920 0003364 265.3546  94.7265 15.69923068  4057,6737.254,91.724,361.386,356.853,0.0
55678.0,STARLINK-5314,PAYLOAD,2023-03-12 12:48:00,15.699336,0.0003457,70.0002,85.9174,270.3509,89.729,1.5614e-05,1.666e-05,0.0,0 STARLINK-5314,1 55678U 23021BC  23071.53334364  .00001666  00000-0  15614-4 0  9993,2 55678  70.0002  85.9174 0003457 270.3509  89.7290 15.69933600  4114,6737.224,91.724,361.418,356.76,0.0
55678.0,STARLINK-5314,PAYLOAD,2023-03-13 04:05:32,15.69916559,0.0003591,70.0003,84.1265,264.6003,95.4783,-1.2443e-06,-3.62e-06,0.0,0 STARLINK-5314,1 55678U 23021BC  23072.17051954 -.00000362  00000-0 -12443-5 0  9997,2 55678  70.0003  84.1265 0003591 264.6003  95.4783 15.69916559  4217,6737.273,91.725,361.557,356.718,0.0
55678.0,STARLINK-5314,PAYLOAD,2023-03-13 13:16:04,15.69898146,0.0002899,69.9993,83.0512,264.531,95.5555,4.2887e-05,4.941e-05,0.0,0 STARLINK-5314,1 55678U 23021BC  23072.55283081  .00004941  00000-0  42887-4 0  9996,2 55678  69.9993  83.0512 0002899 264.5310  95.5555 15.69898146  4584,6737.325,91.726,361.144,357.237,0.0
55678.0,STARLINK-5314,PAYLOAD,2023-03-14 03:01:49,15.69931395,0.0003319,70.0,81.4398,266.6147,93.4669,4.9025e-06,3.77e-06,0.0,0 STARLINK-5314,1 55678U 23021BC  23073.12626613  .00000377  00000-0  49025-5 0  9993,2 55678  70.0000  81.4398 0003319 266.6147  93.4669 15.69931395  4362,6737.23,91.724,361.331,356.859,0.0
55678.0,STARLINK-5314,PAYLOAD,2023-03-14 10:40:34,15.69934287,0.0003463,69.9989,80.5434,266.0005,94.0795,8.1623e-06,7.69e-06,0.0,0 STARLINK-5314,1 55678U 23021BC  23073.44484621  .00000769  00000-0  81623-5 0  9994,2 55678  69.9989  80.5434 0003463 266.0005  94.0795 15.69934287  4723,6737.222,91.724,361.42,356.754,0.0
55678.0,STARLINK-5314,PAYLOAD,2023-03-15 03:29:51,15.69924913,0.0003781,69.9977,78.5731,263.8428,96.2337,2.3075e-05,2.563e-05,0.0,0 STARLINK-5314,1 55678U 23021BC  23074.14573185  .00002563  00000-0  23075-4 0  9996,2 55678  69.9977  78.5731 0003781 263.8428  96.2337 15.69924913  4523,6737.249,91.724,361.661,356.566,0.0
55678.0,STARLINK-5314,PAYLOAD,2023-03-15 12:40:22,15.69921463,0.000352,69.9981,77.4985,264.4419,95.6375,1.777e-05,1.924e-05,0.0,0 STARLINK-5314,1 55678U 23021BC  23074.52803519  .00001924  00000-0  17770-4 0  9990,2 55678  69.9981  77.4985 0003520 264.4419  95.6375 15.69921463  4897,6737.259,91.724,361.495,356.752,0.0
55678.0,STARLINK-5314,PAYLOAD,2023-03-16 02:26:08,15.69925417,0.0003244,69.9991,75.8857,264.5076,95.5749,-6.5353e-06,-9.98e-06,0.0,0 STARLINK-5314,1 55678U 23021BC  23075.10148833 -.00000998  00000-0 -65353-5 0  9999,2 55678  69.9991  75.8857 0003244 264.5076  95.5749 15.69925417  4674,6737.247,91.724,361.298,356.927,0.0
55678.0,STARLINK-5314,PAYLOAD,2023-03-16 11:36:39,15.69926841,0.0003168,70.0007,74.8119,255.5047,104.5798,-1.045e-06,-3.38e-06,0.0,0 STARLINK-5314,1 55678U 23021BC  23075.48378641 -.00000338  00000-0 -10450-5 0  9998,2 55678  70.0007  74.8119 0003168 255.5047 104.5798 15.69926841  5047,6737.243,91.724,361.243,356.974,0.0
55678.0,STARLINK-5314,PAYLOAD,2023-03-17 05:57:39,15.6993465,0.0003543,69.9986,72.6613,265.5615,94.5176,2.3118e-05,2.569e-05,0.0,0 STARLINK-5314,1 55678U 23021BC  23076.24837762  .00002569  00000-0  23118-4 0  9997,2 55678  69.9986  72.6613 0003543 265.5615  94.5176 15.69934650  4857,6737.221,91.724,361.473,356.699,0.0
55678.0,STARLINK-5314,PAYLOAD,2023-03-17 12:04:41,15.69918706,0.0003171,69.9987,71.9447,266.4135,93.6698,6.1063e-06,5.21e-06,0.0,0 STARLINK-5314,1 55678U 23021BC  23076.50325699  .00000521  00000-0  61063-5 0  9995,2 55678  69.9987  71.9447 0003171 266.4135  93.6698 15.69918706  4896,6737.267,91.724,361.268,356.995,0.0
